[{"OBJECT_NAME":"STARLINK-5334","OBJECT_ID":"2023-065G","EPOCH":"2026-03-08T10:19:46.670592","MEAN_MOTION":15.02548735,"ECCENTRICITY":0.0001561,"INCLINATION":43.003,"RA_OF_ASC_NODE":217.3272,"ARG_OF_PERICENTER":280.1539,"MEAN_ANOMALY":79.9127,"EPHEMERIS_TYPE":0,"CLASSIFICATION_TYPE":"U","NORAD_CAT_ID":56509,"ELEMENT_SET_NO":999,"REV_AT_EPOCH":15643,"BSTAR":0.00018311,"MEAN_MOTION_DOT":2.271e-5,"MEAN_MOTION_DDOT":0},{"OBJECT_NAME":"STARLINK-5339","OBJECT_ID":"2023-065H","EPOCH":"2026-03-08T12:00:01.999296","MEAN_MOTION":15.07944639,"ECCENTRICITY":0.0002045,"INCLINATION":43.001,"RA_OF_ASC_NODE":216.9343,"ARG_OF_PERICENTER":268.4765,"MEAN_ANOMALY":114.9059,"EPHEMERIS_TYPE":0,"CLASSIFICATION_TYPE":"U","NORAD_CAT_ID":56510,"ELEMENT_SET_NO":999,"REV_AT_EPOCH":565,"BSTAR":0.0043116,"MEAN_MOTION_DOT":0.00067799,"MEAN_MOTION_DDOT":0},{"OBJECT_NAME":"STARLINK-5351","OBJECT_ID":"2023-065J","EPOCH":"2026-03-08T12:00:01.999296","MEAN_MOTION":15.05146633,"ECCENTRICITY":0.000204,"INCLINATION":43.0007,"RA_OF_ASC_NODE":216.8847,"ARG_OF_PERICENTER":270.9747,"MEAN_ANOMALY":131.6102,"EPHEMERIS_TYPE":0,"CLASSIFICATION_TYPE":"U","NORAD_CAT_ID":56511,"ELEMENT_SET_NO":999,"REV_AT_EPOCH":577,"BSTAR":0.0045286,"MEAN_MOTION_DOT":0.00066001,"MEAN_MOTION_DDOT":0},{"OBJECT_NAME":"STARLINK-5349","OBJECT_ID":"2023-065K","EPOCH":"2026-03-08T12:00:01.999296","MEAN_MOTION":15.07108217,"ECCENTRICITY":0.0002035,"INCLINATION":43.0009,"RA_OF_ASC_NODE":216.916,"ARG_OF_PERICENTER":268.162,"MEAN_ANOMALY":118.2116,"EPHEMERIS_TYPE":0,"CLASSIFICATION_TYPE":"U","NORAD_CAT_ID":56512,"ELEMENT_SET_NO":999,"REV_AT_EPOCH":576,"BSTAR":0.0044548,"MEAN_MOTION_DOT":0.00068486,"MEAN_MOTION_DDOT":0},{"OBJECT_NAME":"STARLINK-5329","OBJECT_ID":"2023-065L","EPOCH":"2026-03-08T12:00:01.999296","MEAN_MOTION":15.05505653,"ECCENTRICITY":0.0001887,"INCLINATION":43.0004,"RA_OF_ASC_NODE":216.8637,"ARG_OF_PERICENTER":274.4,"MEAN_ANOMALY":137.3206,"EPHEMERIS_TYPE":0,"CLASSIFICATION_TYPE":"U","NORAD_CAT_ID":56513,"ELEMENT_SET_NO":999,"REV_AT_EPOCH":581,"BSTAR":0.0043876,"MEAN_MOTION_DOT":0.00064548,"MEAN_MOTION_DDOT":0},{"OBJECT_NAME":"STARLINK-5348","OBJECT_ID":"2023-065N","EPOCH":"2026-03-08T10:08:17.443104","MEAN_MOTION":15.02720379,"ECCENTRICITY":0.0001854,"INCLINATION":43.0041,"RA_OF_ASC_NODE":217.2624,"ARG_OF_PERICENTER":135.1241,"MEAN_ANOMALY":224.9751,"EPHEMERIS_TYPE":0,"CLASSIFICATION_TYPE":"U","NORAD_CAT_ID":56515,"ELEMENT_SET_NO":999,"REV_AT_EPOCH":15643,"BSTAR":0.0015773,"MEAN_MOTION_DOT":0.00021272,"MEAN_MOTION_DDOT":0},{"OBJECT_NAME":"STARLINK-5342","OBJECT_ID":"2023-065P","EPOCH":"2026-03-08T12:00:01.999296","MEAN_MOTION":15.06120683,"ECCENTRICITY":0.0001841,"INCLINATION":43.0004,"RA_OF_ASC_NODE":216.882,"ARG_OF_PERICENTER":272.2748,"MEAN_ANOMALY":131.9538,"EPHEMERIS_TYPE":0,"CLASSIFICATION_TYPE":"U","NORAD_CAT_ID":56516,"ELEMENT_SET_NO":999,"REV_AT_EPOCH":581,"BSTAR":0.0044045,"MEAN_MOTION_DOT":0.00065894,"MEAN_MOTION_DDOT":0},{"OBJECT_NAME":"STARLINK-5345","OBJECT_ID":"2023-065Q","EPOCH":"2026-03-08T11:31:32.991744","MEAN_MOTION":15.02535846,"ECCENTRICITY":0.0001328,"INCLINATION":43.0024,"RA_OF_ASC_NODE":216.8387,"ARG_OF_PERICENTER":267.6682,"MEAN_ANOMALY":92.4008,"EPHEMERIS_TYPE":0,"CLASSIFICATION_TYPE":"U","NORAD_CAT_ID":56517,"ELEMENT_SET_NO":999,"REV_AT_EPOCH":15644,"BSTAR":-2.3267e-5,"MEAN_MOTION_DOT":-5.18e-6,"MEAN_MOTION_DDOT":0},{"OBJECT_NAME":"STARLINK-5346","OBJECT_ID":"2023-065R","EPOCH":"2026-03-07T19:41:49.498656","MEAN_MOTION":15.02844985,"ECCENTRICITY":7.283e-5,"INCLINATION":43.0022,"RA_OF_ASC_NODE":220.4861,"ARG_OF_PERICENTER":240.5378,"MEAN_ANOMALY":119.5391,"EPHEMERIS_TYPE":0,"CLASSIFICATION_TYPE":"U","NORAD_CAT_ID":56518,"ELEMENT_SET_NO":999,"REV_AT_EPOCH":15634,"BSTAR":0.0028438144,"MEAN_MOTION_DOT":0.00038742,"MEAN_MOTION_DDOT":0},{"OBJECT_NAME":"STARLINK-6313","OBJECT_ID":"2023-065S","EPOCH":"2026-03-08T11:25:10.536960","MEAN_MOTION":15.02530965,"ECCENTRICITY":6.48e-5,"INCLINATION":43.003,"RA_OF_ASC_NODE":216.7993,"ARG_OF_PERICENTER":239.6025,"MEAN_ANOMALY":120.4754,"EPHEMERIS_TYPE":0,"CLASSIFICATION_TYPE":"U","NORAD_CAT_ID":56519,"ELEMENT_SET_NO":999,"REV_AT_EPOCH":15644,"BSTAR":0.00012482,"MEAN_MOTION_DOT":1.483e-5,"MEAN_MOTION_DDOT":0},{"OBJECT_NAME":"STARLINK-6344","OBJECT_ID":"2023-065T","EPOCH":"2026-03-08T09:59:00.813696","MEAN_MOTION":15.02537575,"ECCENTRICITY":0.0001736,"INCLINATION":43.0028,"RA_OF_ASC_NODE":217.2146,"ARG_OF_PERICENTER":270.1952,"MEAN_ANOMALY":89.8691,"EPHEMERIS_TYPE":0,"CLASSIFICATION_TYPE":"U","NORAD_CAT_ID":56520,"ELEMENT_SET_NO":999,"REV_AT_EPOCH":15643,"BSTAR":0.00019133,"MEAN_MOTION_DOT":2.382e-5,"MEAN_MOTION_DDOT":0},{"OBJECT_NAME":"STARLINK-6333","OBJECT_ID":"2023-065U","EPOCH":"2026-03-08T10:51:36.068256","MEAN_MOTION":15.02536703,"ECCENTRICITY":0.000102,"INCLINATION":43.001,"RA_OF_ASC_NODE":216.6235,"ARG_OF_PERICENTER":276.093,"MEAN_ANOMALY":83.9796,"EPHEMERIS_TYPE":0,"CLASSIFICATION_TYPE":"U","NORAD_CAT_ID":56521,"ELEMENT_SET_NO":999,"REV_AT_EPOCH":15644,"BSTAR":-6.7622e-5,"MEAN_MOTION_DOT":-1.117e-5,"MEAN_MOTION_DDOT":0},{"OBJECT_NAME":"STARLINK-6327","OBJECT_ID":"2023-065V","EPOCH":"2026-03-08T11:26:45.248640","MEAN_MOTION":15.02536935,"ECCENTRICITY":0.0002295,"INCLINATION":43.0036,"RA_OF_ASC_NODE":216.8093,"ARG_OF_PERICENTER":289.8411,"MEAN_ANOMALY":70.2184,"EPHEMERIS_TYPE":0,"CLASSIFICATION_TYPE":"U","NORAD_CAT_ID":56522,"ELEMENT_SET_NO":999,"REV_AT_EPOCH":15644,"BSTAR":-9.6541e-5,"MEAN_MOTION_DOT":-1.508e-5,"MEAN_MOTION_DDOT":0},{"OBJECT_NAME":"STARLINK-6328","OBJECT_ID":"2023-065W","EPOCH":"2026-03-08T09:22:15.427776","MEAN_MOTION":15.02539574,"ECCENTRICITY":0.0001851,"INCLINATION":43.0043,"RA_OF_ASC_NODE":217.021,"ARG_OF_PERICENTER":268.1348,"MEAN_ANOMALY":91.9282,"EPHEMERIS_TYPE":0,"CLASSIFICATION_TYPE":"U","NORAD_CAT_ID":56523,"ELEMENT_SET_NO":999,"REV_AT_EPOCH":15643,"BSTAR":-0.00019148,"MEAN_MOTION_DOT":-2.79e-5,"MEAN_MOTION_DDOT":0},{"OBJECT_NAME":"STARLINK-6323","OBJECT_ID":"2023-065X","EPOCH":"2026-03-08T09:35:01.574592","MEAN_MOTION":15.02542015,"ECCENTRICITY":0.0001014,"INCLINATION":42.9952,"RA_OF_ASC_NODE":217.0884,"ARG_OF_PERICENTER":158.5632,"MEAN_ANOMALY":201.5252,"EPHEMERIS_TYPE":0,"CLASSIFICATION_TYPE":"U","NORAD_CAT_ID":56524,"ELEMENT_SET_NO":999,"REV_AT_EPOCH":15643,"BSTAR":0.00014297,"MEAN_MOTION_DOT":1.729e-5,"MEAN_MOTION_DDOT":0},{"OBJECT_NAME":"STARLINK-6329","OBJECT_ID":"2023-065Y","EPOCH":"2026-03-08T09:20:39.202368","MEAN_MOTION":15.02538615,"ECCENTRICITY":2.33e-5,"INCLINATION":43.0016,"RA_OF_ASC_NODE":217.0093,"ARG_OF_PERICENTER":302.3433,"MEAN_ANOMALY":57.7387,"EPHEMERIS_TYPE":0,"CLASSIFICATION_TYPE":"U","NORAD_CAT_ID":56525,"ELEMENT_SET_NO":999,"REV_AT_EPOCH":15643,"BSTAR":4.2431e-5,"MEAN_MOTION_DOT":3.7e-6,"MEAN_MOTION_DDOT":0},{"OBJECT_NAME":"STARLINK-6317","OBJECT_ID":"2023-065Z","EPOCH":"2026-03-08T11:01:10.806240","MEAN_MOTION":15.02535972,"ECCENTRICITY":0.0001387,"INCLINATION":43.0029,"RA_OF_ASC_NODE":216.6807,"ARG_OF_PERICENTER":265.4786,"MEAN_ANOMALY":94.5898,"EPHEMERIS_TYPE":0,"CLASSIFICATION_TYPE":"U","NORAD_CAT_ID":56526,"ELEMENT_SET_NO":999,"REV_AT_EPOCH":15644,"BSTAR":0.00011037,"MEAN_MOTION_DOT":1.288e-5,"MEAN_MOTION_DDOT":0}]
