STARLINK-5334           
1 56509U 23065G   26067.43040128  .00002271  00000+0  18311-3 0  9992
2 56509  43.0030 217.3272 0001561 280.1539  79.9127 15.02548735156436
STARLINK-5339           
1 56510U 23065H   26067.50002314  .00067799  00000+0  43116-2 0  9993
2 56510  43.0010 216.9343 0002045 268.4765 114.9059 15.07944639  5657
STARLINK-5351           
1 56511U 23065J   26067.50002314  .00066001  00000+0  45286-2 0  9999
2 56511  43.0007 216.8847 0002040 270.9747 131.6102 15.05146633  5779
STARLINK-5349           
1 56512U 23065K   26067.50002314  .00068486  00000+0  44548-2 0  9999
2 56512  43.0009 216.9160 0002035 268.1620 118.2116 15.07108217  5767
STARLINK-5329           
1 56513U 23065L   26067.50002314  .00064548  00000+0  43876-2 0  9998
2 56513  43.0004 216.8637 0001887 274.4000 137.3206 15.05505653  5818
STARLINK-5348           
1 56515U 23065N   26067.42242411  .00021272  00000+0  15773-2 0  9997
2 56515  43.0041 217.2624 0001854 135.1241 224.9751 15.02720379156430
STARLINK-5342           
1 56516U 23065P   26067.50002314  .00065894  00000+0  44045-2 0  9995
2 56516  43.0004 216.8820 0001841 272.2748 131.9538 15.06120683  5815
STARLINK-5345           
1 56517U 23065Q   26067.48024296 -.00000518  00000+0 -23267-4 0  9995
2 56517  43.0024 216.8387 0001328 267.6682  92.4008 15.02535846156447
STARLINK-5346           
1 56518U 23065R   26066.82071179  .00038742  00000+0  28438-2 0  9996
2 56518  43.0022 220.4861 0000728 240.5378 119.5391 15.02844985156341
STARLINK-6313           
1 56519U 23065S   26067.47581640  .00001483  00000+0  12482-3 0  9993
2 56519  43.0030 216.7993 0000648 239.6025 120.4754 15.02530965156449
STARLINK-6344           
1 56520U 23065T   26067.41598164  .00002382  00000+0  19133-3 0  9997
2 56520  43.0028 217.2146 0001736 270.1952  89.8691 15.02537575156433
STARLINK-6333           
1 56521U 23065U   26067.45250079 -.00001117  00000+0 -67622-4 0  9996
2 56521  43.0010 216.6235 0001020 276.0930  83.9796 15.02536703156448
STARLINK-6327           
1 56522U 23065V   26067.47691260 -.00001508  00000+0 -96541-4 0  9996
2 56522  43.0036 216.8093 0002295 289.8411  70.2184 15.02536935156449
STARLINK-6328           
1 56523U 23065W   26067.39045634 -.00002790  00000+0 -19148-3 0  9997
2 56523  43.0043 217.0210 0001851 268.1348  91.9282 15.02539574156438
STARLINK-6323           
1 56524U 23065X   26067.39932378  .00001729  00000+0  14297-3 0  9997
2 56524  42.9952 217.0884 0001014 158.5632 201.5252 15.02542015156432
STARLINK-6329           
1 56525U 23065Y   26067.38934262  .00000370  00000+0  42431-4 0  9994
2 56525  43.0016 217.0093 0000233 302.3433  57.7387 15.02538615156439
STARLINK-6317           
1 56526U 23065Z   26067.45915285  .00001288  00000+0  11037-3 0  9993
2 56526  43.0029 216.6807 0001387 265.4786  94.5898 15.02535972156443
